{
  "type": "FeatureCollection",
  "features": [
    {
      "type": "Feature",
      "properties": {
        "norad_id": 64694,
        "name": "GOSAT-GW (IBUKI GW)",
        "group": "resource",
        "lat": -11.020861176717025,
        "lon": -61.53412468776064,
        "alt_km": 673.2287114573192,
        "timestamp": "2025-12-27T15:27:10.801330+00:00",
        "meta_object_name": "GOSAT-GW (IBUKI GW)",
        "meta_object_id": "2025-141A",
        "meta_epoch": "2025-12-27T07:19:18.626016",
        "meta_mean_motion": 14.67557386,
        "meta_eccentricity": 0.00014662,
        "meta_inclination": 98.0442,
        "meta_ra_of_asc_node": 296.5549,
        "meta_arg_of_pericenter": 82.1908,
        "meta_mean_anomaly": 277.9463,
        "meta_ephemeris_type": 0,
        "meta_classification_type": "U",
        "meta_norad_cat_id": 64694,
        "meta_element_set_no": 999,
        "meta_rev_at_epoch": 2663,
        "meta_bstar": 0.00021991766,
        "meta_mean_motion_dot": 1.2e-05,
        "meta_mean_motion_ddot": 0,
        "tle_line1": "1 64694U 25141A   25361.30507669  .00001200  00000+0  21992-3 0  9993",
        "tle_line2": "2 64694  98.0442 296.5549 0001466  82.1908 277.9463 14.67557386 26630"
      },
      "geometry": {
        "type": "Point",
        "coordinates": [
          -61.53412468776064,
          -11.020861176717025
        ]
      }
    },
    {
      "type": "Feature",
      "properties": {
        "norad_id": 64876,
        "name": "IONOSFERA-M 3",
        "group": "resource",
        "lat": 40.354316690501896,
        "lon": -44.28100962810445,
        "alt_km": 816.0091289258908,
        "timestamp": "2025-12-27T15:27:10.801340+00:00",
        "meta_object_name": "IONOSFERA-M 3",
        "meta_object_id": "2025-155A",
        "meta_epoch": "2025-12-27T06:48:51.687648",
        "meta_mean_motion": 14.21444673,
        "meta_eccentricity": 0.0001756,
        "meta_inclination": 98.5803,
        "meta_ra_of_asc_node": 322.7398,
        "meta_arg_of_pericenter": 36.2038,
        "meta_mean_anomaly": 323.9258,
        "meta_ephemeris_type": 0,
        "meta_classification_type": "U",
        "meta_norad_cat_id": 64876,
        "meta_element_set_no": 999,
        "meta_rev_at_epoch": 2198,
        "meta_bstar": 7.3363458e-05,
        "meta_mean_motion_dot": 1.18e-06,
        "meta_mean_motion_ddot": 0,
        "tle_line1": "1 64876U 25155A   25361.28393157  .00000118  00000+0  73363-4 0  9999",
        "tle_line2": "2 64876  98.5803 322.7398 0001756  36.2038 323.9258 14.21444673 21989"
      },
      "geometry": {
        "type": "Point",
        "coordinates": [
          -44.28100962810445,
          40.354316690501896
        ]
      }
    },
    {
      "type": "Feature",
      "properties": {
        "norad_id": 64877,
        "name": "IONOSFERA-M 4",
        "group": "resource",
        "lat": -41.2313277247971,
        "lon": 135.40530441351916,
        "alt_km": 827.8593389597545,
        "timestamp": "2025-12-27T15:27:10.801351+00:00",
        "meta_object_name": "IONOSFERA-M 4",
        "meta_object_id": "2025-155B",
        "meta_epoch": "2025-12-27T07:39:20.447424",
        "meta_mean_motion": 14.21445851,
        "meta_eccentricity": 0.00012146,
        "meta_inclination": 98.5803,
        "meta_ra_of_asc_node": 322.6932,
        "meta_arg_of_pericenter": 50.3817,
        "meta_mean_anomaly": 309.7468,
        "meta_ephemeris_type": 0,
        "meta_classification_type": "U",
        "meta_norad_cat_id": 64877,
        "meta_element_set_no": 999,
        "meta_rev_at_epoch": 2198,
        "meta_bstar": 6.9968412e-05,
        "meta_mean_motion_dot": 1.1e-06,
        "meta_mean_motion_ddot": 0,
        "tle_line1": "1 64877U 25155B   25361.31898666  .00000110  00000+0  69968-4 0  9997",
        "tle_line2": "2 64877  98.5803 322.6932 0001214  50.3817 309.7468 14.21445851 21988"
      },
      "geometry": {
        "type": "Point",
        "coordinates": [
          135.40530441351916,
          -41.2313277247971
        ]
      }
    },
    {
      "type": "Feature",
      "properties": {
        "norad_id": 64899,
        "name": "MICROCARB",
        "group": "resource",
        "lat": -28.14418714319654,
        "lon": -107.56571864087745,
        "alt_km": 664.1432606246908,
        "timestamp": "2025-12-27T15:27:10.801361+00:00",
        "meta_object_name": "MICROCARB",
        "meta_object_id": "2025-156A",
        "meta_epoch": "2025-12-27T04:43:23.827584",
        "meta_mean_motion": 14.72080893,
        "meta_eccentricity": 0.00176712,
        "meta_inclination": 98.0009,
        "meta_ra_of_asc_node": 76.3095,
        "meta_arg_of_pericenter": 101.5211,
        "meta_mean_anomaly": 258.7982,
        "meta_ephemeris_type": 0,
        "meta_classification_type": "U",
        "meta_norad_cat_id": 64899,
        "meta_element_set_no": 999,
        "meta_rev_at_epoch": 2266,
        "meta_bstar": 0.00014485368,
        "meta_mean_motion_dot": 8.63e-06,
        "meta_mean_motion_ddot": 0,
        "tle_line1": "1 64899U 25156A   25361.19680356  .00000863  00000+0  14485-3 0  9991",
        "tle_line2": "2 64899  98.0009  76.3095 0017671 101.5211 258.7982 14.72080893 22666"
      },
      "geometry": {
        "type": "Point",
        "coordinates": [
          -107.56571864087745,
          -28.14418714319654
        ]
      }
    },
    {
      "type": "Feature",
      "properties": {
        "norad_id": 64900,
        "name": "CO3D 3",
        "group": "resource",
        "lat": -51.73348782953787,
        "lon": 87.324643259083,
        "alt_km": 512.6260654672742,
        "timestamp": "2025-12-27T15:27:10.801371+00:00",
        "meta_object_name": "CO3D 3",
        "meta_object_id": "2025-156B",
        "meta_epoch": "2025-12-27T06:12:15.860160",
        "meta_mean_motion": 15.20193308,
        "meta_eccentricity": 0.00013493,
        "meta_inclination": 97.4338,
        "meta_ra_of_asc_node": 77.417,
        "meta_arg_of_pericenter": 63.6144,
        "meta_mean_anomaly": 296.523,
        "meta_ephemeris_type": 0,
        "meta_classification_type": "U",
        "meta_norad_cat_id": 64900,
        "meta_element_set_no": 999,
        "meta_rev_at_epoch": 2341,
        "meta_bstar": 0.00027291683,
        "meta_mean_motion_dot": 5.844e-05,
        "meta_mean_motion_ddot": 0,
        "tle_line1": "1 64900U 25156B   25361.25851690  .00005844  00000+0  27292-3 0  9996",
        "tle_line2": "2 64900  97.4338  77.4170 0001349  63.6144 296.5230 15.20193308 23411"
      },
      "geometry": {
        "type": "Point",
        "coordinates": [
          87.324643259083,
          -51.73348782953787
        ]
      }
    },
    {
      "type": "Feature",
      "properties": {
        "norad_id": 64901,
        "name": "CO3D 4",
        "group": "resource",
        "lat": -52.54279806596999,
        "lon": 87.6095434283921,
        "alt_km": 513.1590759251067,
        "timestamp": "2025-12-27T15:27:10.801393+00:00",
        "meta_object_name": "CO3D 4",
        "meta_object_id": "2025-156C",
        "meta_epoch": "2025-12-27T06:12:29.550240",
        "meta_mean_motion": 15.20209247,
        "meta_eccentricity": 0.00014575,
        "meta_inclination": 97.4337,
        "meta_ra_of_asc_node": 77.4176,
        "meta_arg_of_pericenter": 147.4625,
        "meta_mean_anomaly": 212.67,
        "meta_ephemeris_type": 0,
        "meta_classification_type": "U",
        "meta_norad_cat_id": 64901,
        "meta_element_set_no": 999,
        "meta_rev_at_epoch": 2341,
        "meta_bstar": 0.00031167318,
        "meta_mean_motion_dot": 6.687e-05,
        "meta_mean_motion_ddot": 0,
        "tle_line1": "1 64901U 25156C   25361.25867535  .00006687  00000+0  31167-3 0  9994",
        "tle_line2": "2 64901  97.4337  77.4176 0001457 147.4625 212.6700 15.20209247 23413"
      },
      "geometry": {
        "type": "Point",
        "coordinates": [
          87.6095434283921,
          -52.54279806596999
        ]
      }
    },
    {
      "type": "Feature",
      "properties": {
        "norad_id": 64902,
        "name": "CO3D 2",
        "group": "resource",
        "lat": 50.06108753684374,
        "lon": -93.33236556433002,
        "alt_km": 500.5034926394619,
        "timestamp": "2025-12-27T15:27:10.801405+00:00",
        "meta_object_name": "CO3D 2",
        "meta_object_id": "2025-156D",
        "meta_epoch": "2025-12-27T06:59:15.309888",
        "meta_mean_motion": 15.20200383,
        "meta_eccentricity": 7.999e-05,
        "meta_inclination": 97.4339,
        "meta_ra_of_asc_node": 77.3484,
        "meta_arg_of_pericenter": 59.3971,
        "meta_mean_anomaly": 300.7343,
        "meta_ephemeris_type": 0,
        "meta_classification_type": "U",
        "meta_norad_cat_id": 64902,
        "meta_element_set_no": 999,
        "meta_rev_at_epoch": 2341,
        "meta_bstar": 0.00065699782,
        "meta_mean_motion_dot": 0.00014181,
        "meta_mean_motion_ddot": 0,
        "tle_line1": "1 64902U 25156D   25361.29114942  .00014181  00000+0  65700-3 0  9994",
        "tle_line2": "2 64902  97.4339  77.3484 0000799  59.3971 300.7343 15.20200383 23414"
      },
      "geometry": {
        "type": "Point",
        "coordinates": [
          -93.33236556433002,
          50.06108753684374
        ]
      }
    }
  ]
}